$$SOE
2461302.500000000, A.D. 2026-Sep-19 00:00:00.0000, 3.555952704645929E+08, 2.791855420994582E+07, 2.184870688813435E+07,
2461309.500000000, A.D. 2026-Sep-26 00:00:00.0000, 3.544034400758688E+08, 3.898027552422543E+07, 2.185987596351754E+07,
2461316.500000000, A.D. 2026-Oct-03 00:00:00.0000, 3.528341787390104E+08, 5.000045294385196E+07, 2.184776310512207E+07,
2461323.500000000, A.D. 2026-Oct-10 00:00:00.0000, 3.508885827815035E+08, 6.096726609025638E+07, 2.181234569527416E+07,
2461330.500000000, A.D. 2026-Oct-17 00:00:00.0000, 3.485680489070253E+08, 7.186889699807279E+07, 2.175361938421593E+07,
2461337.500000000, A.D. 2026-Oct-24 00:00:00.0000, 3.458742763625461E+08, 8.269353292262524E+07, 2.167159824528186E+07,
2461344.500000000, A.D. 2026-Oct-31 00:00:00.0000, 3.428092695023256E+08, 9.342936915840271E+07, 2.156631492551057E+07,
2461351.500000000, A.D. 2026-Nov-07 00:00:00.0000, 3.393753410875815E+08, 1.040646119785706E+08, 2.143782076794185E+07,
2461358.500000000, A.D. 2026-Nov-14 00:00:00.0000, 3.355751165228610E+08, 1.145874826139692E+08, 2.128618596118053E+07,
2461365.500000000, A.D. 2026-Nov-21 00:00:00.0000, 3.314115372142274E+08, 1.249862229847661E+08, 2.111149993982630E+07,
2461372.500000000, A.D. 2026-Nov-28 00:00:00.0000, 3.268878620532701E+08, 1.352491002078662E+08, 2.091387188372581E+07,
2461379.500000000, A.D. 2026-Dec-05 00:00:00.0000, 3.220076706421903E+08, 1.453644092475874E+08, 2.069343093012432E+07,
2461386.500000000, A.D. 2026-Dec-12 00:00:00.0000, 3.167748684073594E+08, 1.553204768468847E+08, 2.045032633603260E+07,
2461393.500000000, A.D. 2026-Dec-19 00:00:00.0000, 3.111936916958344E+08, 1.651056667777268E+08, 2.018472776341698E+07,
2461400.500000000, A.D. 2026-Dec-26 00:00:00.0000, 3.052687126954488E+08, 1.747083855763215E+08, 1.989682562865672E+07,
2461407.500000000, A.D. 2027-Jan-02 00:00:00.0000, 2.990048444359286E+08, 1.841170886063130E+08, 1.958683147459311E+07,
2461414.500000000, A.D. 2027-Jan-09 00:00:00.0000, 2.924073459673023E+08, 1.933202865045925E+08, 1.925497835519660E+07,
2461421.500000000, A.D. 2027-Jan-16 00:00:00.0000, 2.854818277276528E+08, 2.023065520535218E+08, 1.890152122931151E+07,
2461428.500000000, A.D. 2027-Jan-23 00:00:00.0000, 2.782342571202535E+08, 2.110645274756575E+08, 1.852673735489146E+07,
2461435.500000000, A.D. 2027-Jan-30 00:00:00.0000, 2.706709644597704E+08, 2.195829321399324E+08, 1.813092666138789E+07,
2461442.500000000, A.D. 2027-Feb-06 00:00:00.0000, 2.627986496830525E+08, 2.278505710557464E+08, 1.771441208755106E+07,
2461449.500000000, A.D. 2027-Feb-13 00:00:00.0000, 2.546243893294043E+08, 2.358563454063363E+08, 1.727754002383286E+07,
2461456.500000000, A.D. 2027-Feb-20 00:00:00.0000, 2.461556413807208E+08, 2.435892643639667E+08, 1.682068100906315E+07,
2461463.500000000, A.D. 2027-Feb-27 00:00:00.0000, 2.374002493173847E+08, 2.510384550173490E+08, 1.634423028989032E+07,
2461470.500000000, A.D. 2027-Mar-06 00:00:00.0000, 2.283664483710006E+08, 2.581931723702894E+08, 1.584860812068352E+07,
2461477.500000000, A.D. 2027-Mar-13 00:00:00.0000, 2.190628723233334E+08, 2.650428114911957E+08, 1.533426011443432E+07,
2461484.500000000, A.D. 2027-Mar-20 00:00:00.0000, 2.094985596663382E+08, 2.715769210119117E+08, 1.480165767686024E+07,
2461491.500000000, A.D. 2027-Mar-27 00:00:00.0000, 1.996829592674121E+08, 2.777852174600333E+08, 1.425129845708884E+07,
2461498.500000000, A.D. 2027-Apr-03 00:00:00.0000, 1.896259356805585E+08, 2.836576004079164E+08, 1.368370678881291E+07,
2461505.500000000, A.D. 2027-Apr-10 00:00:00.0000, 1.793377740972494E+08, 2.891841684898473E+08, 1.309943411424215E+07,
2461512.500000000, A.D. 2027-Apr-17 00:00:00.0000, 1.688291848860747E+08, 2.943552362986056E+08, 1.249905938339467E+07,
2461519.500000000, A.D. 2027-Apr-24 00:00:00.0000, 1.581113077216553E+08, 2.991613521216519E+08, 1.188318941182822E+07,
2461526.500000000, A.D. 2027-May-01 00:00:00.0000, 1.471957155181053E+08, 3.035933165643546E+08, 1.125245916680612E+07,
2461533.500000000, A.D. 2027-May-08 00:00:00.0000, 1.360944183864882E+08, 3.076422028254473E+08, 1.060753200960097E+07,
2461540.500000000, A.D. 2027-May-15 00:00:00.0000, 1.248198660277806E+08, 3.112993795841247E+08, 9.949100102711648E+06,
2461547.500000000, A.D. 2027-May-22 00:00:00.0000, 1.133849468905777E+08, 3.145565339003990E+08, 9.277884907393396E+06,
2461554.500000000, A.D. 2027-May-29 00:00:00.0000, 1.018029873368085E+08, 3.174056926632769E+08, 8.594637338660762E+06,
2461561.500000000, A.D. 2027-Jun-05 00:00:00.0000, 9.008775159480032E+07, 3.198392457142096E+08, 7.900137745599955E+06,
2461568.500000000, A.D. 2027-Jun-12 00:00:00.0000, 7.825344037650739E+07, 3.218499710535771E+08, 7.195195928702548E+06,
2461575.500000000, A.D. 2027-Jun-19 00:00:00.0000, 6.631468770410080E+07, 3.234310611644319E+08, 6.480651140809730E+06,
2461582.500000000, A.D. 2027-Jun-26 00:00:00.0000, 5.428655610009120E+07, 3.245761501537722E+08, 5.757372016906142E+06,
2461589.500000000, A.D. 2027-Jul-03 00:00:00.0000, 4.218453014751679E+07, 3.252793416682333E+08, 5.026256412800193E+06,
2461596.500000000, A.D. 2027-Jul-10 00:00:00.0000, 3.002450833075532E+07, 3.255352375235816E+08, 4.288231140794843E+06,
2461603.500000000, A.D. 2027-Jul-17 00:00:00.0000, 1.782279306352108E+07, 3.253389669185644E+08, 3.544251586467385E+06,
2461610.500000000, A.D. 2027-Jul-24 00:00:00.0000, 5.596078923122283E+06, 3.246862160614144E+08, 2.795301178537622E+06,
2461617.500000000, A.D. 2027-Jul-31 00:00:00.0000, -6.638560641776847E+06, 3.235732583271677E+08, 2.042390686083093E+06,
2461624.500000000, A.D. 2027-Aug-07 00:00:00.0000, -1.886368847171929E+07, 3.219969859798424E+08, 1.286557448477149E+06,
2461631.500000000, A.D. 2027-Aug-14 00:00:00.0000, -3.106152314970896E+07, 3.199549430769918E+08, 5.288647196704894E+05,
2461638.500000000, A.D. 2027-Aug-21 00:00:00.0000, -4.321396224116025E+07, 3.174453560266572E+08, -2.295992132926583E+05,
2461645.500000000, A.D. 2027-Aug-28 00:00:00.0000, -5.530260600485803E+07, 3.144671628192044E+08, -9.877223616496623E+05,
2461652.500000000, A.D. 2027-Sep-04 00:00:00.0000, -6.730878285318851E+07, 3.110200432460856E+08, -1.744370512674093E+06,
2461659.500000000, A.D. 2027-Sep-11 00:00:00.0000, -7.921357803859022E+07, 3.071044492211061E+08, -2.498388787967175E+06,
2461666.500000000, A.D. 2027-Sep-18 00:00:00.0000, -9.099786550511265E+07, 3.027216343101835E+08, -3.248603353905007E+06,
2461673.500000000, A.D. 2027-Sep-25 00:00:00.0000, -1.026423427310897E+08, 2.978736821344767E+08, -3.993823316822454E+06,
2461680.500000000, A.D. 2027-Oct-02 00:00:00.0000, -1.141275685206861E+08, 2.925635334023297E+08, -4.732842811725199E+06,
2461687.500000000, A.D. 2027-Oct-09 00:00:00.0000, -1.254340037297254E+08, 2.867950112789531E+08, -5.464443289775163E+06,
2461694.500000000, A.D. 2027-Oct-16 00:00:00.0000, -1.365420548428378E+08, 2.805728447393193E+08, -6.187396016050309E+06,
2461701.500000000, A.D. 2027-Oct-23 00:00:00.0000, -1.474321200920137E+08, 2.739026895878242E+08, -6.900464801257446E+06,
2461708.500000000, A.D. 2027-Oct-30 00:00:00.0000, -1.580846376600725E+08, 2.667911474361028E+08, -7.602408949231073E+06,
2461715.500000000, A.D. 2027-Nov-06 00:00:00.0000, -1.684801370188279E+08, 2.592457834469545E+08, -8.291986217076153E+06,
2461722.500000000, A.D. 2027-Nov-13 00:00:00.0000, -1.785992952332850E+08, 2.512751404531515E+08, -8.967955769977957E+06,
2461729.500000000, A.D. 2027-Nov-20 00:00:00.0000, -1.884229951256897E+08, 2.428887469409849E+08, -9.629081565191731E+06,
2461736.500000000, A.D. 2027-Nov-27 00:00:00.0000, -1.979323834510801E+08, 2.340971215393727E+08, -1.027413605743061E+07,
2461743.500000000, A.D. 2027-Dec-04 00:00:00.0000, -2.071089308449657E+08, 2.249117746384062E+08, -1.090190395241420E+07,
2461750.500000000, A.D. 2027-Dec-11 00:00:00.0000, -2.159344937785567E+08, 2.153452059016538E+08, -1.151118602084260E+07,
2461757.500000000, A.D. 2027-Dec-18 00:00:00.0000, -2.243913778908878E+08, 2.054108970778391E+08, -1.210080300572212E+07,
2461764.500000000, A.D. 2027-Dec-25 00:00:00.0000, -2.324624021554620E+08, 1.951232998846222E+08, -1.266959961470365E+07,
2461771.500000000, A.D. 2028-Jan-01 00:00:00.0000, -2.401309634155290E+08, 1.844978187911795E+08, -1.321644857539332E+07,
$$EOE